BEIDOU-3 M14            
1 43623U 18072B   26134.03606905 -.00000037  00000+0  00000+0 0  9990
2 43623  56.5980  63.7808 0006648 347.7176  12.2477  1.86231503 52014
BEIDOU-3 M16            
1 43647U 18078A   26135.80277500 -.00000053  00000+0  00000+0 0  9991
2 43647  54.1205 301.1207 0007837  39.9154 320.1182  1.86232183 51550
BEIDOU-3 M15            
1 43648U 18078B   26134.85818057 -.00000051  00000+0  00000+0 0  9992
2 43648  54.1176 301.1547 0004943  52.6427 307.3818  1.86232411 51552
BEIDOU-3 M17            
1 43706U 18093A   26135.55362170  .00000098  00000+0  00000+0 0  9992
2 43706  54.1670 183.4038 0009711 290.7134  67.5994  1.86228279 50927
BEIDOU-3 M18            
1 43707U 18093B   26135.41922228  .00000098  00000+0  00000+0 0  9994
2 43707  54.1679 183.4006 0007379 322.1617  37.8817  1.86226387 50928
BEIDOU-3 IGSO-1         
1 44204U 19023A   26132.76772565 -.00000227  00000+0  00000+0 0  9998
2 44204  58.6468  38.0171 0023856 234.3090 349.8662  1.00250503  6851
BEIDOU-2 G8             
1 44231U 19027A   26136.27257289 -.00000236  00000+0  00000+0 0  9993
2 44231   1.5765  74.4338 0010749 280.8863 121.3355  1.00271808 25762
BEIDOU-3 IGSO-2         
1 44337U 19035A   26132.65390358 -.00000046  00000+0  00000+0 0  9991
2 44337  55.2385 159.1745 0039680 215.7907 210.7620  1.00277740 25317
BEIDOU-3 M24            
1 44542U 19061A   26135.48828429  .00000098  00000+0  00000+0 0  9993
2 44542  54.3946 183.8311 0008055   2.6131 357.4867  1.86229171 45183
BEIDOU-3 M23            
1 44543U 19061B   26136.15878090  .00000095  00000+0  00000+0 0  9995
2 44543  54.3933 183.7769 0005262 341.9051  19.5222  1.86227232 45203
BEIDOU-3 IGSO-3         
1 44709U 19073A   26120.85038409 -.00000212  00000+0  00000+0 0  9996
2 44709  54.8842 281.4069 0042404 188.8195 170.9972  1.00251230 23982
BEIDOU-3 M22            
1 44793U 19078A   26133.17974627 -.00000045  00000+0  00000+0 0  9998
2 44793  53.9691 301.0594 0007131  47.8476 312.1989  1.86227440 43994
BEIDOU-3 M21            
1 44794U 19078B   26136.00454285 -.00000054  00000+0  00000+0 0  9997
2 44794  53.9394 300.9216 0004925  45.2846 314.7307  1.86227861 44052
BEIDOU-3 M19            
1 44864U 19090A   26134.37148076 -.00000039  00000+0  00000+0 0  9998
2 44864  56.5302  63.9086 0019040 296.9236 245.2774  1.86231675 43605
BEIDOU-3 G2             
1 45344U 20017A   26136.11718100 -.00000130  00000+0  00000+0 0  9990
2 45344   2.7993  46.8283 0002404   9.7051 299.5423  1.00271896 22939
BEIDOU-3 G3             
1 45807U 20040A   26136.26581286 -.00000343  00000+0  00000+0 0  9995
2 45807   2.3684  67.3587 0003138 332.9501  39.9218  1.00273259 21759
BEIDOU-3 G4             
1 56564U 23066A   26136.27170622 -.00000270  00000+0  00000+0 0  9996
2 56564   0.5285 323.8560 0003511 174.0222 333.9387  1.00274913 11075
BEIDOU-3 M28            
1 58654U 23207A   26132.32302171 -.00000030  00000+0  00000+0 0  9997
2 58654  55.7225  63.5128 0004245 330.2096  29.7521  1.86229701 16176
BEIDOU-3 M26            
1 58655U 23207B   26133.19442925 -.00000035  00000+0  00000+0 0  9991
2 58655  55.7254  63.4698 0004439 309.9196  50.0251  1.86229676 16177
BEIDOU-3 M25            
1 61186U 24168B   26136.24137274 -.00000054  00000+0  00000+0 0  9999
2 61186  54.5030 303.3521 0003053 312.6822  47.3163  1.86229829 11185
BEIDOU-3 M27            
1 61187U 24168C   26136.04186733 -.00000054  00000+0  00000+0 0  9992
2 61187  54.4986 303.3421 0002210  45.3740 315.8860  1.86229930  8666
