OBJECT_NAME,OBJECT_ID,EPOCH,MEAN_MOTION,ECCENTRICITY,INCLINATION,RA_OF_ASC_NODE,ARG_OF_PERICENTER,MEAN_ANOMALY,EPHEMERIS_TYPE,CLASSIFICATION_TYPE,NORAD_CAT_ID,ELEMENT_SET_NO,REV_AT_EPOCH,BSTAR,MEAN_MOTION_DOT,MEAN_MOTION_DDOT
BEIDOU-3 M14 (C33),2018-072B,2026-05-14T00:51:56.365920,1.86231503,.00066483,56.5980,63.7808,347.7176,12.2477,0,U,43623,999,5201,0,-.37E-6,0
BEIDOU-3 M16 (C35),2018-078A,2026-05-15T19:15:59.760000,1.86232183,.00078378,54.1205,301.1207,39.9154,320.1182,0,U,43647,999,5155,0,-.53E-6,0
BEIDOU-3 M15 (C34),2018-078B,2026-05-14T20:35:46.801248,1.86232411,.00049437,54.1176,301.1547,52.6427,307.3818,0,U,43648,999,5155,0,-.51E-6,0
BEIDOU-3 M17 (C36),2018-093A,2026-05-15T13:17:12.914880,1.86228279,.00097116,54.1670,183.4038,290.7134,67.5994,0,U,43706,999,5092,0,.98E-6,0
BEIDOU-3 M18 (C37),2018-093B,2026-05-15T10:03:40.804992,1.86226387,.00073794,54.1679,183.4006,322.1617,37.8817,0,U,43707,999,5092,0,.98E-6,0
BEIDOU-3 IGSO-1 (C38),2019-023A,2026-05-12T18:25:31.496160,1.00250503,.00238565,58.6468,38.0171,234.3090,349.8662,0,U,44204,999,685,0,-.227E-5,0
BEIDOU-2 G8 (C01),2019-027A,2026-05-16T06:32:30.297696,1.00271808,.00107495,1.5765,74.4338,280.8863,121.3355,0,U,44231,999,2576,0,-.236E-5,0
BEIDOU-3 IGSO-2 (C39),2019-035A,2026-05-12T15:41:37.269312,1.00277740,.003968,55.2385,159.1745,215.7907,210.7620,0,U,44337,999,2531,0,-.46E-6,0
BEIDOU-3 M24 (C46),2019-061A,2026-05-15T11:43:07.762656,1.86229171,.00080559,54.3946,183.8311,2.6131,357.4867,0,U,44542,999,4518,0,.98E-6,0
BEIDOU-3 M23 (C45),2019-061B,2026-05-16T03:48:38.669760,1.86227232,.00052621,54.3933,183.7769,341.9051,19.5222,0,U,44543,999,4520,0,.95E-6,0
BEIDOU-3 IGSO-3 (C40),2019-073A,2026-04-30T20:24:33.185376,1.00251230,.00424046,54.8842,281.4069,188.8195,170.9972,0,U,44709,999,2398,0,-.212E-5,0
BEIDOU-3 M22 (C44),2019-078A,2026-05-13T04:18:50.077728,1.86227440,.00071316,53.9691,301.0594,47.8476,312.1989,0,U,44793,999,4399,0,-.45E-6,0
BEIDOU-3 M21 (C43),2019-078B,2026-05-16T00:06:32.502240,1.86227861,.0004925,53.9394,300.9216,45.2846,314.7307,0,U,44794,999,4405,0,-.54E-6,0
BEIDOU-3 M19 (C41),2019-090A,2026-05-14T08:54:55.937664,1.86231675,.00190402,56.5302,63.9086,296.9236,245.2774,0,U,44864,999,4360,0,-.39E-6,0
BEIDOU-3 G2 (C60),2020-017A,2026-05-16T02:48:44.438400,1.00271896,.00024041,2.7993,46.8283,9.7051,299.5423,0,U,45344,999,2293,0,-.13E-5,0
BEIDOU-3 G3 (C61),2020-040A,2026-05-16T06:22:46.231104,1.00273259,.00031385,2.3684,67.3587,332.9501,39.9218,0,U,45807,999,2175,0,-.343E-5,0
BEIDOU-3 G4 (C62),2023-066A,2026-05-16T06:31:15.417408,1.00274913,.00035112,0.5285,323.8560,174.0222,333.9387,0,U,56564,999,1107,0,-.27E-5,0
BEIDOU-3 M28 (C50),2023-207A,2026-05-12T07:45:09.075744,1.86229701,.0004245,55.7225,63.5128,330.2096,29.7521,0,U,58654,999,1617,0,-.3E-6,0
BEIDOU-3 M26 (C48),2023-207B,2026-05-13T04:39:58.687200,1.86229676,.00044392,55.7254,63.4698,309.9196,50.0251,0,U,58655,999,1617,0,-.35E-6,0
BEIDOU-3 M25 (C47),2024-168B,2026-05-16T05:47:34.604736,1.86229829,.00030534,54.5030,303.3521,312.6822,47.3163,0,U,61186,999,1118,0,-.54E-6,0
BEIDOU-3 M27 (C49),2024-168C,2026-05-16T01:00:17.337312,1.86229930,.00022102,54.4986,303.3421,45.3740,315.8860,0,U,61187,999,866,0,-.54E-6,0
